[{"OBJECT_NAME":"GLOBALSTAR M092","OBJECT_ID":"2011-080D","EPOCH":"2026-03-09T05:42:31.536864","MEAN_MOTION":12.62264368,"ECCENTRICITY":4.66e-5,"INCLINATION":52.0113,"RA_OF_ASC_NODE":9.1283,"ARG_OF_PERICENTER":74.5582,"MEAN_ANOMALY":71.0754,"EPHEMERIS_TYPE":0,"CLASSIFICATION_TYPE":"U","NORAD_CAT_ID":38043,"ELEMENT_SET_NO":999,"REV_AT_EPOCH":65542,"BSTAR":8.2790578e-5,"MEAN_MOTION_DOT":-8.9e-7,"MEAN_MOTION_DDOT":0},{"OBJECT_NAME":"COSMOS 2255","OBJECT_ID":"1993-038D","EPOCH":"2026-03-09T16:31:10.525728","MEAN_MOTION":12.6332591,"ECCENTRICITY":0.00053312,"INCLINATION":82.5822,"RA_OF_ASC_NODE":293.1919,"ARG_OF_PERICENTER":201.9654,"MEAN_ANOMALY":221.4802,"EPHEMERIS_TYPE":0,"CLASSIFICATION_TYPE":"U","NORAD_CAT_ID":22690,"ELEMENT_SET_NO":999,"REV_AT_EPOCH":50866,"BSTAR":1.0964091e-5,"MEAN_MOTION_DOT":1.3e-7,"MEAN_MOTION_DDOT":0}]
